STARLINK-6146           
1 57124U 23090Z   23332.83472574  .00002609  00000+0  20812-3 0  9998
2 57124  43.0035 114.4634 0001260 270.6729  89.3969 15.02544910 25283
STARLINK-6100           
1 57125U 23090AA  23332.74864647  .00014230  00000+0  10658-2 0  9994
2 57125  43.0023 102.5226 0001359 272.0456  88.0231 15.02554947 25221
STARLINK-6167           
1 57126U 23090AB  23332.76714203  .00001023  00000+0  90811-4 0  9996
2 57126  43.0033 114.8161 0001294 270.9729  89.0965 15.02537512 25274
STARLINK-6165           
1 57127U 23090AC  23332.75715100  .00003540  00000+0  27698-3 0  9991
2 57127  43.0032 114.7401 0001362 266.8894  93.1792 15.02541717 25088
STARLINK-6163           
1 57128U 23090AD  23332.76380972  .00005226  00000+0  40152-3 0  9991
2 57128  43.0033 114.7896 0001299 272.5415  87.5278 15.02546919 25085
STARLINK-6170           
1 57129U 23090AE  23332.76196481  .00017678  00000+0  13197-2 0  9994
2 57129  43.0021 102.6232 0001303 282.8993  77.1703 15.02555812 24274
STARLINK-6172           
1 57130U 23090AF  23332.75827945 -.00001174  00000+0 -71836-4 0  9993
2 57130  43.0046 114.7489 0001234 273.5148  86.5554 15.02526546 25083
STARLINK-6162           
1 57131U 23090AG  23332.75863536  .00009099  00000+0  68750-3 0  9992
2 57131  43.0024 102.5982 0001306 275.7651  84.3042 15.02549601 25227
STARLINK-6128           
1 57132U 23090AH  23332.81807956  .00002690  00000+0  21413-3 0  9999
2 57132  43.0033 114.3375 0001259 266.3470  93.7228 15.02538986 25096
STARLINK-6143           
1 57133U 23090AJ  23332.74419847  .00000228  00000+0  31925-4 0  9995
2 57133  43.0039 102.4878 0001228 264.5874  95.4828 15.02545287 24279
STARLINK-6133           
1 57134U 23090AK  23332.76085920 -.00000207  00000+0 -21674-6 0  9990
2 57134  43.0031 102.6141 0001177 267.4413  92.6294 15.02541284 25226
STARLINK-6127           
1 57135U 23090AL  23332.73865631  .00000078  00000+0  20874-4 0  9996
2 57135  43.0031 102.4432 0001231 268.5547  91.5154 15.02544087 25226
STARLINK-6112           
1 57136U 23090AM  23332.75528265  .00002742  00000+0  21782-3 0  9996
2 57136  43.0033 102.5719 0001369 272.7798  87.2888 15.02566700 25249
STARLINK-5347           
1 57137U 23090AN  23332.74198365 -.00000255  00000+0 -38202-5 0  9996
2 57137  43.0029 102.4708 0001067 268.2612  91.8108 15.02541636 25227
STARLINK-5336           
1 57138U 23090AP  23332.75418596  .00000782  00000+0  72937-4 0  9994
2 57138  43.0033 102.5638 0001207 268.7030  91.3674 15.02546327 25226
STARLINK-5355           
1 57139U 23090AQ  23332.73754319 -.00000304  00000+0 -74283-5 0  9998
2 57139  43.0039 102.4326 0001135 269.7550  90.3162 15.02541751 24275
STARLINK-5354           
1 57140U 23090AR  23332.74086583  .00000916  00000+0  82833-4 0  9998
2 57140  43.0029 102.4607 0001273 269.0415  91.0282 15.02550507 24274
STARLINK-5357           
1 57141U 23090AS  23332.73198902  .00000599  00000+0  59397-4 0  9993
2 57141  43.0042 102.3912 0001134 272.9811  87.0902 15.02547723 25223
STARLINK-5361           
1 57142U 23090AT  23332.72755233  .00000350  00000+0  41010-4 0  9997
2 57142  43.0050 102.3582 0001202 276.5404  83.5301 15.02544828 25227
STARLINK-5358           
1 57143U 23090AU  23332.72422058  .00000052  00000+0  18900-4 0  9995
2 57143  43.0043 102.3329 0001244 261.7110  98.3591 15.02545167 25227
STARLINK-5150           
1 57144U 23090AV  23332.73531802 -.00000089  00000+0  84821-5 0  9992
2 57144  43.0044 102.4169 0001274 271.7143  88.3553 15.02547163 24271
STARLINK-5768           
1 57145U 23090AW  23332.78181897  .00003121  00000+0  24591-3 0  9998
2 57145  43.0034 101.9024 0001240 276.0445  84.0256 15.02550638 24286
STARLINK-5791           
1 57146U 23090AX  23332.72199601  .00000242  00000+0  33000-4 0  9992
2 57146  43.0040 102.3155 0001246 261.6824  98.3877 15.02547431 25220
STARLINK-5765           
1 57147U 23090AY  23332.77738509  .00007313  00000+0  55575-3 0  9990
2 57147  43.0032 101.8683 0001327 278.3399  81.7293 15.02545902 25425
STARLINK-5788           
1 57148U 23090AZ  23332.77072324  .00016273  00000+0  12162-2 0  9996
2 57148  43.0034 101.8193 0001465 262.2874  97.7802 15.02557516 25233
STARLINK-5778           
1 57149U 23090BA  23332.65824650  .00000261  00000+0  34376-4 0  9994
2 57149  43.0037  76.6570 0001481 264.5792  95.4881 15.02551588 24578
STARLINK-5780           
1 57150U 23090BB  23332.78515135  .00012775  00000+0  95854-3 0  9995
2 57150  43.0038 101.9290 0001421 272.2754  87.7926 15.02556703 25423
STARLINK-5776           
1 57151U 23090BC  23332.78403852 -.00000567  00000+0 -26860-4 0  9998
2 57151  43.0043 101.9202 0001231 277.4968  82.5734 15.02552106 25429
STARLINK-6164           
1 57152U 23090BD  23332.72091232 -.00001075  00000+0 -64491-4 0  9995
2 57152  43.0044 102.3075 0001113 284.1643  75.9076 15.02535373 25419
STARLINK-5879           
1 57153U 23090BE  23332.74444554  .00000443  00000+0  47850-4 0  9993
2 57153  43.0048  89.4665 0001211 272.2886  87.7818 15.02555339 25060
STARLINK-6106           
1 57154U 23090BF  23332.77848695 -.00000230  00000+0 -19173-5 0  9995
2 57154  43.0042 101.8776 0001233 264.6487  95.4214 15.02546712 25424
STARLINK-6108           
1 57155U 23090BG  23332.76406240  .00001065  00000+0  93848-4 0  9996
2 57155  43.0037 101.7715 0001121 273.4733  86.5981 15.02544729 25427
STARLINK-6137           
1 57156U 23090BH  23332.76740400 -.00001437  00000+0 -91310-4 0  9993
2 57156  43.0040 101.7934 0001507 246.4107 113.6577 15.02531847 25428
STARLINK-5525           
1 57218U 23094A   23332.77471309  .00009634  00000+0  72697-3 0  9997
2 57218  43.0021 231.1284 0001066 287.7434  72.3292 15.02552266 21972
STARLINK-5520           
1 57219U 23094B   23332.90433953  .00004693  00000+0  36216-3 0  9993
2 57219  43.0016 230.3796 0001174 284.3651  75.7061 15.02543413 21997
STARLINK-5880           
1 57220U 23094C   23332.75584298  .00009720  00000+0  73347-3 0  9999
2 57220  43.0028 230.9848 0001365 271.3676  88.7010 15.02542043 21975
STARLINK-5875           
1 57221U 23094D   23332.90100981  .00001881  00000+0  15430-3 0  9999
2 57221  43.0030 230.3542 0001116 279.3405  80.7311 15.02530637 21990
STARLINK-5870           
1 57222U 23094E   23332.76250378  .00004535  00000+0  35048-3 0  9996
2 57222  43.0025 231.0342 0001125 271.0798  88.9915 15.02542145 22601
STARLINK-5519           
1 57223U 23094F   23332.76583502  .00016400  00000+0  12258-2 0  9996
2 57223  43.0019 231.0613 0001201 235.2523 124.8206 15.02550113 21975
STARLINK-5983           
1 57224U 23094G   23332.89213127  .00003489  00000+0  27321-3 0  9995
2 57224  43.0026 230.2872 0001162 273.1318  86.9392 15.02536544 21999
STARLINK-6294           
1 57225U 23094H   23332.75695830  .00020789  00000+0  15478-2 0  9997
2 57225  43.0022 230.9946 0001764 270.6383  89.4257 15.02576151 21971
STARLINK-6350           
1 57226U 23094J   23333.14696389 -.00000337  00000+0 -98746-5 0  9993
2 57226  43.0029 228.7572 0000691 307.1565  52.9214 15.02514170 22214
STARLINK-5996           
1 57227U 23094K   23332.75362340  .00011746  00000+0  88289-3 0  9990
2 57227  43.0027 230.9683 0001315 270.3922  89.6770 15.02545327 21977
STARLINK-6230           
1 57228U 23094L   23332.74474400  .00018983  00000+0  14162-2 0  9999
2 57228  43.0028 230.9001 0001148 270.0322  90.0389 15.02545449 21975
STARLINK-6233           
1 57229U 23094M   23332.75140290  .00010910  00000+0  82127-3 0  9997
2 57229  43.0029 230.9506 0001309 266.9109  93.1583 15.02545255 21978
STARLINK-6250           
1 57230U 23094N   23332.80566371  .00008612  00000+0  65143-3 0  9992
2 57230  43.0021 230.4995 0001212 251.3229 108.7481 15.02556671 21988
STARLINK-5840           
1 57231U 23094P   23332.78237260  .00024054  00000+0  17877-2 0  9990
2 57231  43.0024 230.3207 0001234 243.0870 116.9846 15.02576205 21982
STARLINK-5872           
1 57232U 23094Q   23332.90976735  .00007953  00000+0  60284-3 0  9992
2 57232  43.0023 229.5543 0001254 270.6340  89.4358 15.02554554 22666
STARLINK-5866           
1 57233U 23094R   23332.78902194  .00003764  00000+0  29349-3 0  9990
2 57233  43.0020 230.3698 0001321 241.1987 118.8722 15.02541774 21986
STARLINK-6368           
1 57234U 23094S   23332.78014218  .00005851  00000+0  44775-3 0  9991
2 57234  43.0029 230.3045 0001288 245.3661 114.7048 15.02542050 21983
STARLINK-6360           
1 57235U 23094T   23332.79124387  .00013757  00000+0  10312-2 0  9995
2 57235  43.0027 230.3892 0000938 277.5400  82.5335 15.02545941 21984
STARLINK-6315           
1 57236U 23094U   23332.71959330  .00014941  00000+0  11183-2 0  9995
2 57236  43.0007 218.5721 0000962 284.5481  75.5254 15.02550090 22115
STARLINK-6365           
1 57237U 23094V   23332.78569213  .00010458  00000+0  78784-3 0  9990
2 57237  43.0027 230.3465 0001315 244.3964 115.6742 15.02546527 21980
STARLINK-6334           
1 57238U 23094W   23333.11068589  .00011496  00000+0  86391-3 0  9995
2 57238  43.0020 216.3389 0001270 291.5924  68.4783 15.02569557 22353
STARLINK-6330           
1 57239U 23094X   23332.91087906  .00006394  00000+0  48780-3 0  9998
2 57239  43.0025 229.5640 0001274 248.7558 111.3148 15.02547869 22003
STARLINK-6351           
1 57240U 23094Y   23333.10181854  .00002875  00000+0  22779-3 0  9999
2 57240  43.0024 216.2724 0001294 271.1084  88.9610 15.02534526 22353
STARLINK-6349           
1 57241U 23094Z   23332.78276172 -.00000622  00000+0 -30987-4 0  9992
2 57241  43.0016 218.1815 0000973 284.9288  75.1446 15.02513644 22126
STARLINK-6306           
1 57242U 23094AA  23332.71293402  .00000743  00000+0  70108-4 0  9992
2 57242  43.0030 218.5162 0001044 284.4097  75.6630 15.02531887 22113
STARLINK-6346           
1 57243U 23094AB  23332.71515334  .00001166  00000+0  10140-3 0  9993
2 57243  43.0023 218.5333 0001125 282.8597  77.2119 15.02527483 22110
